COSMOS 1933             
1 18958U 88020A   26031.14623635  .00003941  00000+0  19433-3 0  9990
2 18958  82.5140 288.0517 0004056 356.3422   3.7782 15.17649250 44537
SL-3 R/B                
1 19046U 88032B   26031.26615860  .00005791  00000+0  27435-3 0  9992
2 19046  97.5129  14.6805 0026549   8.9958 351.1747 15.19403007 46428
SL-16 R/B               
1 19120U 88039B   26031.28272149  .00000181  00000+0  10822-3 0  9993
2 19120  71.0151 147.6457 0020521  32.2150 328.0224 14.19610145953074
COSMOS 1953             
1 19210U 88050A   26030.90838200  .00009258  00000+0  34006-3 0  9994
2 19210  82.5074 196.2167 0010375 256.4848 103.5235 15.27729493 32010
SL-8 R/B                
1 19257U 88053B   26030.91506039  .00000287  00000+0  10149-3 0  9996
2 19257  74.0471 182.0868 0019982   8.8827 108.4334 14.38891899971161
COSMOS 1975             
1 19573U 88093A   26030.80114258  .00010873  00000+0  40389-3 0  9998
2 19573  82.5222 155.6860 0010610 307.0800  52.9468 15.27372769 13620
SL-14 R/B               
1 19574U 88093B   26031.14527873  .00000540  00000+0  59289-4 0  9998
2 19574  82.5286  77.2984 0021264 158.4376 255.4800 14.85614161995469
SL-16 R/B               
1 19650U 88102B   26030.97389731 -.00000215  00000+0 -84389-4 0  9993
2 19650  70.9973 230.8517 0012061  64.2580 295.9787 14.16146719921558
INTERCOSMOS 24          
1 20261U 89080A   26031.31267496  .00000530  00000+0  15046-3 0  9992
2 20261  82.6075 128.7279 1188510  19.5906 344.7093 12.59507332662091
SL-14 R/B               
1 20262U 89080C   26031.26807029  .00000353  00000+0  10737-3 0  9994
2 20262  82.5933 197.2117 1229432 270.3399  75.7244 12.50450637655477
DELTA 1 R/B             
1 20323U 89089B   26031.16632728  .00000514  00000+0  13618-3 0  9992
2 20323  97.0731 244.5662 0067751 240.7456 118.6958 14.50628884890294
ARIANE 40 R/B           
1 20443U 90005H   26031.14904274  .00000352  00000+0  12547-3 0  9991
2 20443  98.3163  92.9137 0009289 322.7854  37.2690 14.39843712887401
