CCSDS_OMM_VERS = 2.0
CREATION_DATE  = 
ORIGINATOR     = 

OBJECT_NAME    = COSMOS 1933
OBJECT_ID      = 1988-020A
CENTER_NAME    = EARTH
REF_FRAME      = TEME
TIME_SYSTEM    = UTC
MEAN_ELEMENT_THEORY = SGP/SGP4

EPOCH          = 2026-01-31T03:30:34.820640
MEAN_MOTION    = 15.17649250
ECCENTRICITY   = .00040565
INCLINATION    = 82.5140
RA_OF_ASC_NODE = 288.0517
ARG_OF_PERICENTER = 356.3422
MEAN_ANOMALY   = 3.7782

EPHEMERIS_TYPE = 0
CLASSIFICATION_TYPE = U
NORAD_CAT_ID   = 18958
ELEMENT_SET_NO = 999
REV_AT_EPOCH   = 4453
BSTAR          = .19433029E-3
MEAN_MOTION_DOT = .3941E-4
MEAN_MOTION_DDOT = 0

CCSDS_OMM_VERS = 2.0
CREATION_DATE  = 
ORIGINATOR     = 

OBJECT_NAME    = SL-3 R/B
OBJECT_ID      = 1988-032B
CENTER_NAME    = EARTH
REF_FRAME      = TEME
TIME_SYSTEM    = UTC
MEAN_ELEMENT_THEORY = SGP/SGP4

EPOCH          = 2026-01-31T06:23:16.103040
MEAN_MOTION    = 15.19403007
ECCENTRICITY   = .0026549
INCLINATION    = 97.5129
RA_OF_ASC_NODE = 14.6805
ARG_OF_PERICENTER = 8.9958
MEAN_ANOMALY   = 351.1747

EPHEMERIS_TYPE = 0
CLASSIFICATION_TYPE = U
NORAD_CAT_ID   = 19046
ELEMENT_SET_NO = 999
REV_AT_EPOCH   = 4642
BSTAR          = .27434807E-3
MEAN_MOTION_DOT = .5791E-4
MEAN_MOTION_DDOT = 0

CCSDS_OMM_VERS = 2.0
CREATION_DATE  = 
ORIGINATOR     = 

OBJECT_NAME    = SL-16 R/B
OBJECT_ID      = 1988-039B
CENTER_NAME    = EARTH
REF_FRAME      = TEME
TIME_SYSTEM    = UTC
MEAN_ELEMENT_THEORY = SGP/SGP4

EPOCH          = 2026-01-31T06:47:07.136736
MEAN_MOTION    = 14.19610145
ECCENTRICITY   = .00205217
INCLINATION    = 71.0151
RA_OF_ASC_NODE = 147.6457
ARG_OF_PERICENTER = 32.2150
MEAN_ANOMALY   = 328.0224

EPHEMERIS_TYPE = 0
CLASSIFICATION_TYPE = U
NORAD_CAT_ID   = 19120
ELEMENT_SET_NO = 999
REV_AT_EPOCH   = 95307
BSTAR          = .10821516E-3
MEAN_MOTION_DOT = .181E-5
MEAN_MOTION_DDOT = 0

CCSDS_OMM_VERS = 2.0
CREATION_DATE  = 
ORIGINATOR     = 

OBJECT_NAME    = COSMOS 1953
OBJECT_ID      = 1988-050A
CENTER_NAME    = EARTH
REF_FRAME      = TEME
TIME_SYSTEM    = UTC
MEAN_ELEMENT_THEORY = SGP/SGP4

EPOCH          = 2026-01-30T21:48:04.204800
MEAN_MOTION    = 15.27729493
ECCENTRICITY   = .0010375
INCLINATION    = 82.5074
RA_OF_ASC_NODE = 196.2167
ARG_OF_PERICENTER = 256.4848
MEAN_ANOMALY   = 103.5235

EPHEMERIS_TYPE = 0
CLASSIFICATION_TYPE = U
NORAD_CAT_ID   = 19210
ELEMENT_SET_NO = 999
REV_AT_EPOCH   = 3201
BSTAR          = .34006E-3
MEAN_MOTION_DOT = .9258E-4
MEAN_MOTION_DDOT = 0

CCSDS_OMM_VERS = 2.0
CREATION_DATE  = 
ORIGINATOR     = 

OBJECT_NAME    = SL-8 R/B
OBJECT_ID      = 1988-053B
CENTER_NAME    = EARTH
REF_FRAME      = TEME
TIME_SYSTEM    = UTC
MEAN_ELEMENT_THEORY = SGP/SGP4

EPOCH          = 2026-01-30T21:57:41.217696
MEAN_MOTION    = 14.38891899
ECCENTRICITY   = .0019982
INCLINATION    = 74.0471
RA_OF_ASC_NODE = 182.0868
ARG_OF_PERICENTER = 8.8827
MEAN_ANOMALY   = 108.4334

EPHEMERIS_TYPE = 0
CLASSIFICATION_TYPE = U
NORAD_CAT_ID   = 19257
ELEMENT_SET_NO = 999
REV_AT_EPOCH   = 97116
BSTAR          = .10149E-3
MEAN_MOTION_DOT = .287E-5
MEAN_MOTION_DDOT = 0

CCSDS_OMM_VERS = 2.0
CREATION_DATE  = 
ORIGINATOR     = 

OBJECT_NAME    = COSMOS 1975
OBJECT_ID      = 1988-093A
CENTER_NAME    = EARTH
REF_FRAME      = TEME
TIME_SYSTEM    = UTC
MEAN_ELEMENT_THEORY = SGP/SGP4

EPOCH          = 2026-01-30T19:13:38.718912
MEAN_MOTION    = 15.27372769
ECCENTRICITY   = .00106107
INCLINATION    = 82.5222
RA_OF_ASC_NODE = 155.6860
ARG_OF_PERICENTER = 307.0800
MEAN_ANOMALY   = 52.9468

EPHEMERIS_TYPE = 0
CLASSIFICATION_TYPE = U
NORAD_CAT_ID   = 19573
ELEMENT_SET_NO = 999
REV_AT_EPOCH   = 1362
BSTAR          = .40388881E-3
MEAN_MOTION_DOT = .10873E-3
MEAN_MOTION_DDOT = 0

CCSDS_OMM_VERS = 2.0
CREATION_DATE  = 
ORIGINATOR     = 

OBJECT_NAME    = SL-14 R/B
OBJECT_ID      = 1988-093B
CENTER_NAME    = EARTH
REF_FRAME      = TEME
TIME_SYSTEM    = UTC
MEAN_ELEMENT_THEORY = SGP/SGP4

EPOCH          = 2026-01-31T03:29:12.082272
MEAN_MOTION    = 14.85614161
ECCENTRICITY   = .00212644
INCLINATION    = 82.5286
RA_OF_ASC_NODE = 77.2984
ARG_OF_PERICENTER = 158.4376
MEAN_ANOMALY   = 255.4800

EPHEMERIS_TYPE = 0
CLASSIFICATION_TYPE = U
NORAD_CAT_ID   = 19574
ELEMENT_SET_NO = 999
REV_AT_EPOCH   = 99546
BSTAR          = .5928887E-4
MEAN_MOTION_DOT = .54E-5
MEAN_MOTION_DDOT = 0

CCSDS_OMM_VERS = 2.0
CREATION_DATE  = 
ORIGINATOR     = 

OBJECT_NAME    = SL-16 R/B
OBJECT_ID      = 1988-102B
CENTER_NAME    = EARTH
REF_FRAME      = TEME
TIME_SYSTEM    = UTC
MEAN_ELEMENT_THEORY = SGP/SGP4

EPOCH          = 2026-01-30T23:22:24.727584
MEAN_MOTION    = 14.16146719
ECCENTRICITY   = .0012061
INCLINATION    = 70.9973
RA_OF_ASC_NODE = 230.8517
ARG_OF_PERICENTER = 64.2580
MEAN_ANOMALY   = 295.9787

EPHEMERIS_TYPE = 0
CLASSIFICATION_TYPE = U
NORAD_CAT_ID   = 19650
ELEMENT_SET_NO = 999
REV_AT_EPOCH   = 92155
BSTAR          = -.84389151E-4
MEAN_MOTION_DOT = -.215E-5
MEAN_MOTION_DDOT = 0

CCSDS_OMM_VERS = 2.0
CREATION_DATE  = 
ORIGINATOR     = 

OBJECT_NAME    = INTERCOSMOS 24
OBJECT_ID      = 1989-080A
CENTER_NAME    = EARTH
REF_FRAME      = TEME
TIME_SYSTEM    = UTC
MEAN_ELEMENT_THEORY = SGP/SGP4

EPOCH          = 2026-01-31T07:30:15.116544
MEAN_MOTION    = 12.59507332
ECCENTRICITY   = .11885101
INCLINATION    = 82.6075
RA_OF_ASC_NODE = 128.7279
ARG_OF_PERICENTER = 19.5906
MEAN_ANOMALY   = 344.7093

EPHEMERIS_TYPE = 0
CLASSIFICATION_TYPE = U
NORAD_CAT_ID   = 20261
ELEMENT_SET_NO = 999
REV_AT_EPOCH   = 66209
BSTAR          = .15046073E-3
MEAN_MOTION_DOT = .53E-5
MEAN_MOTION_DDOT = 0

CCSDS_OMM_VERS = 2.0
CREATION_DATE  = 
ORIGINATOR     = 

OBJECT_NAME    = SL-14 R/B
OBJECT_ID      = 1989-080C
CENTER_NAME    = EARTH
REF_FRAME      = TEME
TIME_SYSTEM    = UTC
MEAN_ELEMENT_THEORY = SGP/SGP4

EPOCH          = 2026-01-31T06:26:01.273056
MEAN_MOTION    = 12.50450637
ECCENTRICITY   = .12294324
INCLINATION    = 82.5933
RA_OF_ASC_NODE = 197.2117
ARG_OF_PERICENTER = 270.3399
MEAN_ANOMALY   = 75.7244

EPHEMERIS_TYPE = 0
CLASSIFICATION_TYPE = U
NORAD_CAT_ID   = 20262
ELEMENT_SET_NO = 999
REV_AT_EPOCH   = 65547
BSTAR          = .10737364E-3
MEAN_MOTION_DOT = .353E-5
MEAN_MOTION_DDOT = 0

CCSDS_OMM_VERS = 2.0
CREATION_DATE  = 
ORIGINATOR     = 

OBJECT_NAME    = DELTA 1 R/B
OBJECT_ID      = 1989-089B
CENTER_NAME    = EARTH
REF_FRAME      = TEME
TIME_SYSTEM    = UTC
MEAN_ELEMENT_THEORY = SGP/SGP4

EPOCH          = 2026-01-31T03:59:30.676992
MEAN_MOTION    = 14.50628884
ECCENTRICITY   = .00677515
INCLINATION    = 97.0731
RA_OF_ASC_NODE = 244.5662
ARG_OF_PERICENTER = 240.7456
MEAN_ANOMALY   = 118.6958

EPHEMERIS_TYPE = 0
CLASSIFICATION_TYPE = U
NORAD_CAT_ID   = 20323
ELEMENT_SET_NO = 999
REV_AT_EPOCH   = 89029
BSTAR          = .13618437E-3
MEAN_MOTION_DOT = .514E-5
MEAN_MOTION_DDOT = 0

CCSDS_OMM_VERS = 2.0
CREATION_DATE  = 
ORIGINATOR     = 

OBJECT_NAME    = ARIANE 40 R/B
OBJECT_ID      = 1990-005H
CENTER_NAME    = EARTH
REF_FRAME      = TEME
TIME_SYSTEM    = UTC
MEAN_ELEMENT_THEORY = SGP/SGP4

EPOCH          = 2026-01-31T03:34:37.292736
MEAN_MOTION    = 14.39843712
ECCENTRICITY   = .00092898
INCLINATION    = 98.3163
RA_OF_ASC_NODE = 92.9137
ARG_OF_PERICENTER = 322.7854
MEAN_ANOMALY   = 37.2690

EPHEMERIS_TYPE = 0
CLASSIFICATION_TYPE = U
NORAD_CAT_ID   = 20443
ELEMENT_SET_NO = 999
REV_AT_EPOCH   = 88740
BSTAR          = .12546745E-3
MEAN_MOTION_DOT = .352E-5
MEAN_MOTION_DDOT = 0

